{
    "week": 295,
    "satellites": [
        {
            "Name": "COSMOS 2433 (720)",
            "Line1": "1 32275U 07052A   24341.43677734 -.00000022  00000+0  00000+0 0  9991",
            "Line2": "2 32275  65.8663 334.6404 0005681 256.1859 103.7707  2.13103948133211",
            "SatelliteNumber": "32275",
            "Classification": "U",
            "LaunchYear": "07",
            "LaunchNumber": "052",
            "PieceOfLaunch": "A",
            "EpochYear": "24",
            "EpochDay": 341.43677734,
            "FirstDerivativeMeanMotion": -2.2e-07,
            "SecondDerivativeMeanMotion": "00000+0",
            "BSTAR": "00000+0",
            "SetNumber": "999",
            "Inclination": 65.8663,
            "RAAN": 334.6404,
            "Eccentricity": 0.0005681,
            "ArgumentOfPerigee": 256.1859,
            "MeanAnomaly": 103.7707,
            "MeanMotion": 2.13103948,
            "RevolutionNumber": "13321"
        },
        {
            "Name": "COSMOS 2432 (719)",
            "Line1": "1 32276U 07052B   24341.64591437 -.00000022  00000+0  00000+0 0  9990",
            "Line2": "2 32276  65.8816 334.7505 0011600 312.3309 153.7411  2.13103091133214",
            "SatelliteNumber": "32276",
            "Classification": "U",
            "LaunchYear": "07",
            "LaunchNumber": "052",
            "PieceOfLaunch": "B",
            "EpochYear": "24",
            "EpochDay": 341.64591437,
            "FirstDerivativeMeanMotion": -2.2e-07,
            "SecondDerivativeMeanMotion": "00000+0",
            "BSTAR": "00000+0",
            "SetNumber": "999",
            "Inclination": 65.8816,
            "RAAN": 334.7505,
            "Eccentricity": 0.00116,
            "ArgumentOfPerigee": 312.3309,
            "MeanAnomaly": 153.7411,
            "MeanMotion": 2.13103091,
            "RevolutionNumber": "13321"
        },
        {
            "Name": "COSMOS 2434 (721)",
            "Line1": "1 32393U 07065A   24341.81099385  .00000063  00000+0  00000+0 0  9992",
            "Line2": "2 32393  64.3153 210.7319 0004357  71.4276 107.5934  2.13101262131926",
            "SatelliteNumber": "32393",
            "Classification": "U",
            "LaunchYear": "07",
            "LaunchNumber": "065",
            "PieceOfLaunch": "A",
            "EpochYear": "24",
            "EpochDay": 341.81099385,
            "FirstDerivativeMeanMotion": 6.3e-07,
            "SecondDerivativeMeanMotion": "00000+0",
            "BSTAR": "00000+0",
            "SetNumber": "999",
            "Inclination": 64.3153,
            "RAAN": 210.7319,
            "Eccentricity": 0.0004357,
            "ArgumentOfPerigee": 71.4276,
            "MeanAnomaly": 107.5934,
            "MeanMotion": 2.13101262,
            "RevolutionNumber": "13192"
        },
        {
            "Name": "COSMOS 2436 (723)",
            "Line1": "1 32395U 07065C   24340.26894128  .00000068  00000+0  00000+0 0  9995",
            "Line2": "2 32395  64.3239 210.8505 0017415   7.5755 203.1078  2.13100035131819",
            "SatelliteNumber": "32395",
            "Classification": "U",
            "LaunchYear": "07",
            "LaunchNumber": "065",
            "PieceOfLaunch": "C",
            "EpochYear": "24",
            "EpochDay": 340.26894128,
            "FirstDerivativeMeanMotion": 6.8e-07,
            "SecondDerivativeMeanMotion": "00000+0",
            "BSTAR": "00000+0",
            "SetNumber": "999",
            "Inclination": 64.3239,
            "RAAN": 210.8505,
            "Eccentricity": 0.0017415,
            "ArgumentOfPerigee": 7.5755,
            "MeanAnomaly": 203.1078,
            "MeanMotion": 2.13100035,
            "RevolutionNumber": "13181"
        },
        {
            "Name": "COSMOS 2456 (730)",
            "Line1": "1 36111U 09070A   24341.39963057  .00000026  00000+0  00000+0 0  9990",
            "Line2": "2 36111  64.6969  90.0502 0002573 297.4307  80.6593  2.13103519116586",
            "SatelliteNumber": "36111",
            "Classification": "U",
            "LaunchYear": "09",
            "LaunchNumber": "070",
            "PieceOfLaunch": "A",
            "EpochYear": "24",
            "EpochDay": 341.39963057,
            "FirstDerivativeMeanMotion": 2.6e-07,
            "SecondDerivativeMeanMotion": "00000+0",
            "BSTAR": "00000+0",
            "SetNumber": "999",
            "Inclination": 64.6969,
            "RAAN": 90.0502,
            "Eccentricity": 0.0002573,
            "ArgumentOfPerigee": 297.4307,
            "MeanAnomaly": 80.6593,
            "MeanMotion": 2.13103519,
            "RevolutionNumber": "11658"
        },
        {
            "Name": "COSMOS 2457 (733)",
            "Line1": "1 36112U 09070B   24341.79282745  .00000025  00000+0  00000+0 0  9992",
            "Line2": "2 36112  64.6819  89.8918 0005419 158.3758 293.9090  2.13100957116590",
            "SatelliteNumber": "36112",
            "Classification": "U",
            "LaunchYear": "09",
            "LaunchNumber": "070",
            "PieceOfLaunch": "B",
            "EpochYear": "24",
            "EpochDay": 341.79282745,
            "FirstDerivativeMeanMotion": 2.5e-07,
            "SecondDerivativeMeanMotion": "00000+0",
            "BSTAR": "00000+0",
            "SetNumber": "999",
            "Inclination": 64.6819,
            "RAAN": 89.8918,
            "Eccentricity": 0.0005419,
            "ArgumentOfPerigee": 158.3758,
            "MeanAnomaly": 293.909,
            "MeanMotion": 2.13100957,
            "RevolutionNumber": "11659"
        },
        {
            "Name": "COSMOS 2460 (732)",
            "Line1": "1 36402U 10007C   24341.32170139 -.00000022  00000+0  00000+0 0  9996",
            "Line2": "2 36402  65.7195 333.2796 0002967 274.7346 170.2644  2.13106129114847",
            "SatelliteNumber": "36402",
            "Classification": "U",
            "LaunchYear": "10",
            "LaunchNumber": "007",
            "PieceOfLaunch": "C",
            "EpochYear": "24",
            "EpochDay": 341.32170139,
            "FirstDerivativeMeanMotion": -2.2e-07,
            "SecondDerivativeMeanMotion": "00000+0",
            "BSTAR": "00000+0",
            "SetNumber": "999",
            "Inclination": 65.7195,
            "RAAN": 333.2796,
            "Eccentricity": 0.0002967,
            "ArgumentOfPerigee": 274.7346,
            "MeanAnomaly": 170.2644,
            "MeanMotion": 2.13106129,
            "RevolutionNumber": "11484"
        },
        {
            "Name": "COSMOS 2476 (744)",
            "Line1": "1 37867U 11064A   24341.58772818  .00000030  00000+0  00000+0 0  9994",
            "Line2": "2 37867  64.9669  91.7427 0023339 232.8611 200.9717  2.13101442101888",
            "SatelliteNumber": "37867",
            "Classification": "U",
            "LaunchYear": "11",
            "LaunchNumber": "064",
            "PieceOfLaunch": "A",
            "EpochYear": "24",
            "EpochDay": 341.58772818,
            "FirstDerivativeMeanMotion": 3e-07,
            "SecondDerivativeMeanMotion": "00000+0",
            "BSTAR": "00000+0",
            "SetNumber": "999",
            "Inclination": 64.9669,
            "RAAN": 91.7427,
            "Eccentricity": 0.0023339,
            "ArgumentOfPerigee": 232.8611,
            "MeanAnomaly": 200.9717,
            "MeanMotion": 2.13101442,
            "RevolutionNumber": "10188"
        },
        {
            "Name": "COSMOS 2477 (745)",
            "Line1": "1 37868U 11064B   24340.38308667  .00000029  00000+0  00000+0 0  9997",
            "Line2": "2 37868  64.9732  91.8577 0020448 233.1945 175.4615  2.13102864101858",
            "SatelliteNumber": "37868",
            "Classification": "U",
            "LaunchYear": "11",
            "LaunchNumber": "064",
            "PieceOfLaunch": "B",
            "EpochYear": "24",
            "EpochDay": 340.38308667,
            "FirstDerivativeMeanMotion": 2.9e-07,
            "SecondDerivativeMeanMotion": "00000+0",
            "BSTAR": "00000+0",
            "SetNumber": "999",
            "Inclination": 64.9732,
            "RAAN": 91.8577,
            "Eccentricity": 0.0020448,
            "ArgumentOfPerigee": 233.1945,
            "MeanAnomaly": 175.4615,
            "MeanMotion": 2.13102864,
            "RevolutionNumber": "10185"
        },
        {
            "Name": "COSMOS 2475 (743)",
            "Line1": "1 37869U 11064C   24341.37098701  .00000030  00000+0  00000+0 0  9995",
            "Line2": "2 37869  64.9805  91.8406 0025064 248.8147 155.3583  2.13101509101886",
            "SatelliteNumber": "37869",
            "Classification": "U",
            "LaunchYear": "11",
            "LaunchNumber": "064",
            "PieceOfLaunch": "C",
            "EpochYear": "24",
            "EpochDay": 341.37098701,
            "FirstDerivativeMeanMotion": 3e-07,
            "SecondDerivativeMeanMotion": "00000+0",
            "BSTAR": "00000+0",
            "SetNumber": "999",
            "Inclination": 64.9805,
            "RAAN": 91.8406,
            "Eccentricity": 0.0025064,
            "ArgumentOfPerigee": 248.8147,
            "MeanAnomaly": 155.3583,
            "MeanMotion": 2.13101509,
            "RevolutionNumber": "10188"
        }
    ]
}